#dP2023 10 26  0  0  0.00000000      96 __u+U IGS20 EXT  IAC
## 2285 345600.00000000   900.00000000 60243 0.0000000000000
+  119   C06C07C08C09C10C11C12C13C14C16C19C20C21C22C23C24C25
+        C26C27C28C29C30C32C33C34C35C36C37C38C39C40C41C42C43
+        C44C45C46E02E03E04E05E07E08E09E10E11E12E13E14E15E19
+        E21E24E25E26E27E30E31E33E34E36G01G02G03G04G05G06G07
+        G08G09G10G11G12G13G14G15G16G17G18G19G20G21G22G23G24
+        G25G26G27G28G29G30G31G32J02J03J04R01R02R03R04R05R07
+        R08R09R11R12R13R14R15R16R17R18R19R20R21R22R24R25R26
++        11  9 10 11  9 10  8 10  9 10  8  9  9  7  9  8  7
++         7 10  6  8  9  7  8  8  6  8  8  9 12  9  9  8  9
++         8  9 10  7  8  7  7  8  9  8  8  8  9  7  7  8  8
++         7  7  8  8  8  7  7  8  7  8  8  8  8  8  8  8  8
++         7  7  7  9  7  7  7  7  7  7  9  7  8  8  7  7  7
++         7  9  7  7  7  8  7  8  9 10  9  9  8  8  7  8  7
++         8  7  8 10  8  7  7  7  9  8  9  9 10  8 10 10  9
%c M  cc GPS ccc cccc cccc cccc cccc ccccc ccccc ccccc ccccc
%c cc cc ccc ccc cccc cccc cccc cccc ccccc ccccc ccccc ccccc
%f  0.0000000  0.000000000  0.00000000000  0.000000000000000
%f  0.0000000  0.000000000  0.00000000000  0.000000000000000
%i    0    0    0    0      0      0      0      0         0
%i    0    0    0    0      0      0      0      0         0
/* IAC                                ULTRA-RAPID PREDICTION
/* S/V CLOCKS ARE ALIGNED TO GNSS TIME                      
/* G:C1WC2W R:C1PC2P E:C1XC5X C:C2IC6I J:C1CC2S             
/* PCV:IGS20_2280 OL/AL:FES2004  NONE     YN ORB:CoN CLK:CoN
*  2023 10 26 21 30  0.00000000
PC06 -13342.187121  24327.869644 -31786.057551     71.727559
PC07 -12553.884106  40125.310078   -980.957344   -220.539141
PC08   1417.952840  29177.058896  30489.538528    275.360984
PC09  -4965.090740  24331.920910 -33716.918854     -9.081050
PC10  -5668.849611  40992.850641   6738.537602      5.126963
PC11  20814.201408   5016.936801  17987.773474    224.250737
PC12   2529.290457  15491.073609  23118.195273    882.212476
PC13   6474.495882  32616.452013  26249.086849    373.554956
PC14  13184.061198  11960.348154 -21472.325629    662.894034
PC16 -18891.006644  22886.530362 -29835.548844   -144.933656
PC19 -15645.420467  -1150.785748  23093.290908   -973.486525
PC20  -9395.301585 -19546.899991  17575.377257    170.172843
PC21  -3151.350851  27704.286499   -888.623514   -969.103617
PC22 -13259.185861  18946.122463  15595.839178   -250.276673
PC23  16265.678647  -7074.525004  21548.703987   -835.155523
PC24  18106.065516  20152.860291  -6769.804986    534.222596
PC25  24338.569465   7989.316251  11087.198612    241.686803
PC26   2728.700883  19597.952513 -19708.639355   -197.350948
PC27   6789.032018 -17944.553397 -20277.847355    219.169304
PC28  22037.001660 -14997.583438  -8262.672608    165.099270
PC29 -25511.006020   2986.648045 -10905.802864    193.048170
PC30 -12709.383751 -11321.667104 -22119.739746     -7.189536
PC32   3000.993458 -27736.751749    779.421934   -531.436971
PC33  15663.794992   1163.696814 -23070.933997   -950.000675
PC34  14087.918042  10459.053110  21689.132143    289.784515
PC35 -21394.938227  15885.530493   8336.239951    516.626600
PC36 -24194.273067  -9236.015204 -10358.572658   -161.878082
PC37  -1476.583675 -19343.794504  20059.806069   -865.712905
PC38  -6686.149207  25241.211777  33182.155848    113.709095
PC39 -22674.877692  23162.058312 -27069.698277     -5.399584
PC40 -19016.409683  37302.660739  -3564.597542    -41.607497
PC41  13457.824123 -18373.272766 -16083.808045   -871.913146
PC42   8625.383258  20741.392153 -16509.666325   -512.716117
PC43  25266.416299  -2211.967183  11615.830784     45.653939
PC44  -6299.246999  18333.622849  20073.696418    273.790508
PC45 -15744.324576   7456.596337 -21797.160056    -40.059257
PC46 -18830.509701 -19762.928276   5680.548846    -94.916967
PE02 -16360.471247   3925.386791 -24352.947205     73.256256
PE03 -23108.941249  13508.969906  12616.630608    -68.457353
PE04  15617.006000 -24495.490660   5672.181570   -243.304299
PE05 -17180.106065  -5262.822710  23518.268049     31.301554
PE07    763.633807  21317.242603 -20522.968673    -84.444750
PE08 -15962.479272  24375.482063  -5204.596203   -167.465832
PE09   -545.537250 -21321.784680  20522.486484   -205.526152
PE10    612.143843 -16093.766759 -24837.305467   -574.154849
PE11 -11511.925405 -16432.460214 -21770.035943   3140.037881
PE12  11416.865785 -13492.009963 -23742.794799   -752.230969
PE13  10758.932619  16426.763472  22156.650571    -19.626196
PE14  22855.633830 -20638.436777   2418.290938    379.978774
PE15 -11897.843076  13253.500703  23649.979900    -64.418175
PE19  23090.094702 -11311.901126 -14660.754690  -1343.134616
PE21  18039.405619  16349.410876  16841.295195   -560.770564
PE24  -8851.386186 -28201.220912   1323.950466   -397.454626
PE25 -17961.175445 -16691.151298 -16569.253604     -3.752835
PE26  27088.116307   9654.754895   7047.083235    262.813691
PE27   9295.521702  28097.685121   -816.829604   -184.411509
PE30  -5203.341773  22916.384677 -18014.016162   -611.813855
PE31   4841.138006 -23147.510034  17808.945777     -8.671159
PE33  27526.730950  -1955.399229 -10722.787054      1.069177
PE34 -27251.351726   2417.491615  11276.437535    -74.550550
PE36 -26785.973539  -9944.455368  -7722.709830   -135.412549
PG01 -16576.178752 -14110.357811 -15793.625712    163.375315
PG02 -11116.333617 -14336.188616 -18963.440553   -537.029667
PG03 -12269.171723 -22737.528412   6247.263428    -54.469115
PG04  -8623.250289 -12799.687427  21610.682559    195.619856
PG05   4695.609467  25030.684686   7190.854831   -148.019275
PG06 -19491.173865   7191.429173  16672.547131    521.472639
PG07 -26125.459625  -6019.114678   1310.776859     29.829473
PG08   -707.357035 -19341.107490 -18084.867345   -149.080270
PG09 -16489.005499  -2800.914851  20558.051635    -21.099341
PG10  13477.550133  -5904.223680 -21915.270696    -58.927870
PG11  -7502.197271  13531.504551  21601.318573   -432.940459
PG12   9551.308877  24442.284688   4075.408880   -440.241892
PG13  -9880.489646  20750.529715 -13324.374982    588.454993
PG14 -15500.780088   2112.513552 -21452.182263    225.479220
PG15   4263.694114  18896.808461 -18565.838709     90.997003
PG16   2254.851402 -23492.767274  11403.048799   -432.655058
PG17 -21342.738912  11042.170087 -11007.888137    723.686971
PG18  26220.279024   4648.813635  -1297.435292   -460.850211
PG19 -20733.685242  15924.157424  -3668.346837    390.384924
PG20  -3104.466379  19974.954138  17366.876875    404.794730
PG21  -8068.868460 -14934.700986 -20139.001230    145.831540
PG22 -12430.846762  10027.612124 -20819.389922     95.459761
PG23  16786.862074   7804.580346 -19105.613485     88.832879
PG24  12628.398442  14985.743235 -18499.782030   -356.133969
PG25  16300.643148  15378.403539  14139.090359    474.581132
PG26   7793.074245 -16905.253025  18686.350766    220.755951
PG27  10967.111514 -22325.334219  -8949.070078    -61.041444
PG28  20853.294717  -7160.380407  14787.325039    -33.105032
PG29  15921.397969   4142.044968  20831.224133   -610.197519
PG30 -25058.556934   1734.313601  -8911.088699   -474.670597
PG31  13419.019501 -11438.634313  19786.009105   -225.098833
PG32  20196.329155 -14858.183722  -8254.195093   -577.976560
PJ02 -19469.926358  27407.235193 -20912.340802     -6.425539
PJ03 -30351.173131  24850.461492  20571.302520     -6.242477
PJ04 -28914.784349  28173.578233  18108.720689     71.590497
PR01   8354.091817   9207.614626 -22277.993650     68.492637
PR02  12959.148960  -9515.303560 -19739.940936    -22.369196
PR03  10218.859358 -22621.361870  -5686.754823     87.847868
PR04   2216.186420 -22836.934755  11146.003650    208.486121
PR05  -7111.505638 -10811.717205  21979.942642    121.251209
PR07 -10001.692089  22978.366220   4950.208872     67.739570
PR08  -1967.511778  22841.427623 -11173.820029    -73.088117
PR09 -16076.145288  -2797.570290 -19615.794998    149.796442
PR11   9412.362719  19556.041123 -13379.439001   -208.911623
PR12  18619.553528  16562.306414   5511.198831     32.770288
PR13  16791.036939   4998.472492  18528.521401    -40.605014
PR14   3930.446446 -11721.040160  22326.981233     25.480501
PR15 -10182.457218 -19963.776940  12207.664181     85.080879
PR16 -18639.443077 -16652.685783  -5168.785814     20.062366
PR17  16204.264623 -10932.352216 -16402.395670     29.309189
PR18   -721.611779 -10507.367428 -23210.121364    108.845159
PR19 -15849.601772  -6016.205451 -19048.666576   -252.344281
PR20 -25240.431710   3739.093720   -682.512325   -102.469609
PR21 -15548.101964  10882.882477  17030.463508    -48.593749
PR22   1522.530233  10788.553861  23094.253441     90.557614
PR24  25037.723538  -4941.846289    133.621512    -29.759249
PR25 -16553.226789  10448.350652  16349.169130     -6.323317
PR26  -2087.941589  23021.711215 -10750.934676    -19.207443
EOF
